[{"OBJECT_NAME":"YIJIAN","OBJECT_ID":"2016-081B","EPOCH":"2026-03-09T22:34:34.332960","MEAN_MOTION":14.60631013,"ECCENTRICITY":0.00197345,"INCLINATION":98.5358,"RA_OF_ASC_NODE":63.7876,"ARG_OF_PERICENTER":255.3426,"MEAN_ANOMALY":104.5586,"EPHEMERIS_TYPE":0,"CLASSIFICATION_TYPE":"U","NORAD_CAT_ID":41899,"ELEMENT_SET_NO":999,"REV_AT_EPOCH":49010,"BSTAR":0.00020669629,"MEAN_MOTION_DOT":9.57e-6,"MEAN_MOTION_DDOT":0},{"OBJECT_NAME":"COSMOS 2251 DEB","OBJECT_ID":"1993-036BJK","EPOCH":"2026-03-08T02:56:12.227136","MEAN_MOTION":14.65856918,"ECCENTRICITY":0.00472843,"INCLINATION":74.0039,"RA_OF_ASC_NODE":116.9466,"ARG_OF_PERICENTER":274.497,"MEAN_ANOMALY":85.0798,"EPHEMERIS_TYPE":0,"CLASSIFICATION_TYPE":"U","NORAD_CAT_ID":37295,"ELEMENT_SET_NO":999,"REV_AT_EPOCH":83555,"BSTAR":0.00071492305,"MEAN_MOTION_DOT":3.939e-5,"MEAN_MOTION_DDOT":0}]
